OBJECT_NAME,OBJECT_ID,EPOCH,MEAN_MOTION,ECCENTRICITY,INCLINATION,RA_OF_ASC_NODE,ARG_OF_PERICENTER,MEAN_ANOMALY,EPHEMERIS_TYPE,CLASSIFICATION_TYPE,NORAD_CAT_ID,ELEMENT_SET_NO,REV_AT_EPOCH,BSTAR,MEAN_MOTION_DOT,MEAN_MOTION_DDOT
STARLINK-4553,2022-101BC,2025-10-13T14:28:43.165632,15.08830268,.00016913,53.2186,354.1660,107.8031,252.3146,0,U,53577,999,17506,.12903004E-3,.1766E-4,0
STARLINK-4556,2022-101BD,2025-10-13T11:02:01.820256,15.08842167,.00016835,53.2180,354.6937,93.8718,266.2466,0,U,53578,999,17422,.94568236E-4,.1217E-4,0
STARLINK-4580,2022-101BE,2025-10-13T14:07:29.317728,15.08844533,.00013125,53.2198,354.0742,94.3132,265.8010,0,U,53579,999,17424,.10704262E-4,-.118E-5,0
CHUANGXIN 16A (CX-16A),2022-102A,2025-10-13T16:33:27.245088,15.04649591,.0004861,28.9943,137.9985,292.4809,67.5276,0,U,53586,999,17234,.21167E-3,.3205E-4,0
BEIJING-3B,2022-103A,2025-10-13T23:31:11.224128,14.87324560,.00284707,97.8253,3.3163,133.3177,227.0419,0,U,53587,999,17049,.27172281E-3,.2415E-4,0
STARLINK-4691,2022-104A,2025-10-13T23:35:59.591904,15.08816201,.00016919,53.2153,182.9604,83.0796,277.0388,0,U,53588,999,17394,-.13172155E-3,-.2382E-4,0
STARLINK-4673,2022-104B,2025-10-13T16:47:53.412000,15.08828440,.00018015,53.2161,184.0354,81.5975,278.5221,0,U,53589,999,17375,.12652408E-4,-.87E-6,0
STARLINK-4689,2022-104C,2025-10-13T23:30:39.110976,15.08835265,.00014266,53.2178,182.9366,89.1068,271.0088,0,U,53590,999,17381,.13666926E-4,-.7E-6,0
STARLINK-4674,2022-104D,2025-10-13T23:25:20.591328,15.08840850,.00015517,53.2138,182.9167,83.6958,276.4211,0,U,53591,999,17381,-.3725125E-4,-.881E-5,0
STARLINK-4672,2022-104E,2025-10-13T16:59:52.991808,15.08825613,.0001499,53.2154,184.0894,82.7375,277.3787,0,U,53592,999,17375,-.20924347E-4,-.621E-5,0
STARLINK-4681,2022-104G,2025-10-13T16:37:16.510080,15.08833311,.00016116,53.2176,183.9924,87.3456,272.7721,0,U,53594,999,17389,-.10187347E-4,-.45E-5,0
STARLINK-4684,2022-104H,2025-10-13T10:21:01.829088,15.08838262,.00016072,53.2154,185.2028,85.1672,274.9503,0,U,53595,999,17371,.4488231E-4,.426E-5,0
STARLINK-4676,2022-104L,2025-10-12T17:50:01.671360,15.08849139,.00014864,53.2141,188.0169,96.2640,263.8521,0,U,53598,999,17328,.1834755E-4,.4E-7,0
STARLINK-4677,2022-104N,2025-10-13T00:07:45.530976,15.08847116,.00016115,53.2167,187.5012,85.6516,274.4660,0,U,53600,999,17331,.37083817E-4,.302E-5,0
STARLINK-4675,2022-104P,2025-10-13T09:59:47.788512,15.08842821,.00013105,53.2169,185.1110,89.4830,270.6312,0,U,53601,999,17338,.84414427E-4,.1056E-4,0
STARLINK-4648,2022-104Q,2025-10-13T16:29:58.259904,15.08843926,.00016092,53.2153,178.9821,90.9400,269.1776,0,U,53602,999,17349,.47663286E-4,.471E-5,0
STARLINK-4692,2022-104R,2025-10-13T23:23:21.029280,15.08846951,.00017042,53.2128,177.9238,90.6315,269.4872,0,U,53603,999,17353,.15669973E-3,.2207E-4,0
STARLINK-4690,2022-104S,2025-10-13T09:57:49.323744,15.08838396,.00018416,53.2200,180.1212,86.2032,273.9171,0,U,53604,999,17345,.35945277E-4,.284E-5,0
STARLINK-4693,2022-104T,2025-10-13T00:16:52.586400,15.08842889,.00015949,53.2179,186.8471,96.4656,263.6518,0,U,53605,999,17332,.51057635E-4,.525E-5,0
STARLINK-4590,2022-104U,2025-10-13T23:16:03.542880,15.08836362,.00020204,53.2145,172.8847,93.4203,266.7020,0,U,53606,999,17348,-.40702533E-4,-.936E-5,0
STARLINK-4591,2022-104V,2025-10-13T23:07:24.989088,15.08858771,.0001621,53.2151,177.8547,78.6376,281.4799,0,U,53607,999,17353,-.25236919E-3,-.4304E-4,0
STARLINK-4647,2022-104W,2025-10-13T23:26:40.426656,15.08831454,.00015129,53.2140,172.9315,92.9236,267.1929,0,U,53608,999,17348,.6237604E-5,-.189E-5,0
STARLINK-4660,2022-104X,2025-10-13T09:36:35.512992,15.08840124,.00015025,53.2178,180.0289,87.9124,272.2041,0,U,53609,999,17345,.5724312E-5,-.197E-5,0
STARLINK-4610,2022-104Y,2025-10-13T23:17:26.296800,15.08849021,.00010189,53.2147,172.8931,89.4593,270.6516,0,U,53610,999,17348,.6235162E-5,-.189E-5,0
STARLINK-4658,2022-104AA,2025-10-13T16:49:12.556992,15.08830288,.00017546,53.2164,174.0539,85.4104,274.7088,0,U,53612,999,17344,.38386899E-4,.323E-5,0
STARLINK-4655,2022-104AB,2025-10-13T23:21:22.828896,15.08817946,.0001538,53.2169,172.9089,89.3242,270.7927,0,U,53613,999,17348,-.18876809E-3,-.3289E-4,0
STARLINK-4605,2022-104AE,2025-10-13T23:06:44.584128,15.08840150,.00019988,53.2181,162.6792,104.6571,255.4643,0,U,53616,999,17373,-.51792242E-4,-.1112E-4,0
STARLINK-4609,2022-104AH,2025-10-13T23:00:08.255232,15.08836300,.00014514,53.2138,172.8176,86.6965,273.4193,0,U,53619,999,17348,.6815014E-5,-.18E-5,0
STARLINK-4615,2022-104AJ,2025-10-13T22:38:54.396096,15.08848404,.0001836,53.2140,172.7283,84.0010,276.1191,0,U,53620,999,17359,-.3024314E-5,-.336E-5,0
STARLINK-4608,2022-104AK,2025-10-13T22:54:49.958496,15.08841686,.00016165,53.2149,172.7984,76.7067,283.4106,0,U,53621,999,17348,.11517739E-3,.1546E-4,0
